ONEWEB-0035             
1 45143U 20008N   26063.70283497 -.00000574  00000+0 -16800-2 0  9998
2 45143  87.8762  57.0863 0001917  89.7670 270.3677 13.10374943294250
ONEWEB-0036             
1 45144U 20008P   26062.93672493  .00007494  00000+0  21567-1 0  9992
2 45144  87.8775  57.2088 0001905  74.7118 285.4219 13.09883836294583
ONEWEB-0038             
1 45145U 20008Q   26063.48970368 -.00000321  00000+0 -94275-3 0  9998
2 45145  87.8862  41.8824 0002010 138.6251 221.5030 13.11416104296604
ONEWEB-0039             
1 45146U 20008R   26063.44638666  .00000123  00000+0  31722-3 0  9993
2 45146  87.8771  57.1209 0001307  83.3675 276.7601 13.10370346294447
ONEWEB-0040             
1 45147U 20008S   26063.51611622  .00000460  00000+0  12810-2 0  9995
2 45147  87.8760  57.1239 0001796  91.0849 269.0485 13.10370894294151
ONEWEB-0043             
1 45149U 20008U   26063.67048363  .00000421  00000+0  11695-2 0  9997
2 45149  87.8764  57.0759 0001278  78.7644 281.3627 13.10370978294498
ONEWEB-0044             
1 45150U 20008V   26063.46961269 -.00000659  00000+0 -19256-2 0  9991
2 45150  87.8774  57.1117 0001648  88.8012 271.3304 13.10373395294769
ONEWEB-0045             
1 45151U 20008W   26063.48448091 -.00000056  00000+0 -19435-3 0  9998
2 45151  87.8861  41.8706 0001747  86.3553 273.7775 13.11413738296682
ONEWEB-0047             
1 45152U 20008X   26063.46298377 -.00000614  00000+0 -17967-2 0  9994
2 45152  87.8764  57.1160 0001885  92.4174 267.7169 13.10375218294484
ONEWEB-0048             
1 45153U 20008Y   26063.45799135 -.00000435  00000+0 -12813-2 0  9998
2 45153  87.8761  57.1442 0001875  90.8343 269.2999 13.10369617294095
ONEWEB-0049             
1 45154U 20008Z   26063.46117213 -.00000558  00000+0 -16359-2 0  9996
2 45154  87.8759  57.1316 0001878  73.9079 286.2255 13.10370525294313
ONEWEB-0051             
1 45155U 20008AA  26063.48278940  .00000046  00000+0  93024-4 0  9990
2 45155  87.8856  41.8841 0001825  84.9024 275.2312 13.11414576297365
ONEWEB-0052             
1 45156U 20008AB  26063.46011126 -.00000579  00000+0 -17082-2 0  9991
2 45156  87.8770  57.1027 0001797  71.9125 288.2198 13.09872593294225
ONEWEB-0053             
1 45157U 20008AC  26063.51445839  .00000511  00000+0  14270-2 0  9990
2 45157  87.8763  57.1299 0001474  76.4734 283.6558 13.10370914294206
ONEWEB-0054             
1 45158U 20008AD  26063.47293894 -.00000590  00000+0 -17258-2 0  9996
2 45158  87.8772  57.1128 0001882  85.3580 274.7762 13.10374270294318
ONEWEB-0056             
1 45159U 20008AE  26063.45385166 -.00000265  00000+0 -79586-3 0  9991
2 45159  87.8767  57.1162 0001955  83.2877 276.8473 13.10370086294467
ONEWEB-0057             
1 45160U 20008AF  26063.46147053 -.00001677  00000+0 -48423-2 0  9998
2 45160  87.8766  57.1244 0001638  81.5135 278.6178 13.10362808294639
