[{"OBJECT_NAME":"ONEWEB-0035","OBJECT_ID":"2020-008N","EPOCH":"2026-03-04T16:52:04.941408","MEAN_MOTION":13.10374943,"ECCENTRICITY":0.0001917,"INCLINATION":87.8762,"RA_OF_ASC_NODE":57.0863,"ARG_OF_PERICENTER":89.767,"MEAN_ANOMALY":270.3677,"EPHEMERIS_TYPE":0,"CLASSIFICATION_TYPE":"U","NORAD_CAT_ID":45143,"ELEMENT_SET_NO":999,"REV_AT_EPOCH":29425,"BSTAR":-0.00168,"MEAN_MOTION_DOT":-5.74e-6,"MEAN_MOTION_DDOT":0},{"OBJECT_NAME":"ONEWEB-0036","OBJECT_ID":"2020-008P","EPOCH":"2026-03-03T22:28:53.033952","MEAN_MOTION":13.09883836,"ECCENTRICITY":0.0001905,"INCLINATION":87.8775,"RA_OF_ASC_NODE":57.2088,"ARG_OF_PERICENTER":74.7118,"MEAN_ANOMALY":285.4219,"EPHEMERIS_TYPE":0,"CLASSIFICATION_TYPE":"U","NORAD_CAT_ID":45144,"ELEMENT_SET_NO":999,"REV_AT_EPOCH":29458,"BSTAR":0.021567,"MEAN_MOTION_DOT":7.494e-5,"MEAN_MOTION_DDOT":0},{"OBJECT_NAME":"ONEWEB-0038","OBJECT_ID":"2020-008Q","EPOCH":"2026-03-04T11:45:10.397952","MEAN_MOTION":13.11416104,"ECCENTRICITY":0.00020108,"INCLINATION":87.8862,"RA_OF_ASC_NODE":41.8824,"ARG_OF_PERICENTER":138.6251,"MEAN_ANOMALY":221.503,"EPHEMERIS_TYPE":0,"CLASSIFICATION_TYPE":"U","NORAD_CAT_ID":45145,"ELEMENT_SET_NO":999,"REV_AT_EPOCH":29660,"BSTAR":-0.00094275469,"MEAN_MOTION_DOT":-3.21e-6,"MEAN_MOTION_DDOT":0},{"OBJECT_NAME":"ONEWEB-0039","OBJECT_ID":"2020-008R","EPOCH":"2026-03-04T10:42:47.807424","MEAN_MOTION":13.10370346,"ECCENTRICITY":0.00013076,"INCLINATION":87.8771,"RA_OF_ASC_NODE":57.1209,"ARG_OF_PERICENTER":83.3675,"MEAN_ANOMALY":276.7601,"EPHEMERIS_TYPE":0,"CLASSIFICATION_TYPE":"U","NORAD_CAT_ID":45146,"ELEMENT_SET_NO":999,"REV_AT_EPOCH":29444,"BSTAR":0.00031722239,"MEAN_MOTION_DOT":1.23e-6,"MEAN_MOTION_DDOT":0},{"OBJECT_NAME":"ONEWEB-0040","OBJECT_ID":"2020-008S","EPOCH":"2026-03-04T12:23:12.441408","MEAN_MOTION":13.10370894,"ECCENTRICITY":0.0001796,"INCLINATION":87.876,"RA_OF_ASC_NODE":57.1239,"ARG_OF_PERICENTER":91.0849,"MEAN_ANOMALY":269.0485,"EPHEMERIS_TYPE":0,"CLASSIFICATION_TYPE":"U","NORAD_CAT_ID":45147,"ELEMENT_SET_NO":999,"REV_AT_EPOCH":29415,"BSTAR":0.001281,"MEAN_MOTION_DOT":4.6e-6,"MEAN_MOTION_DDOT":0},{"OBJECT_NAME":"ONEWEB-0043","OBJECT_ID":"2020-008U","EPOCH":"2026-03-04T16:05:29.785632","MEAN_MOTION":13.10370978,"ECCENTRICITY":0.0001278,"INCLINATION":87.8764,"RA_OF_ASC_NODE":57.0759,"ARG_OF_PERICENTER":78.7644,"MEAN_ANOMALY":281.3627,"EPHEMERIS_TYPE":0,"CLASSIFICATION_TYPE":"U","NORAD_CAT_ID":45149,"ELEMENT_SET_NO":999,"REV_AT_EPOCH":29449,"BSTAR":0.0011695,"MEAN_MOTION_DOT":4.21e-6,"MEAN_MOTION_DDOT":0},{"OBJECT_NAME":"ONEWEB-0044","OBJECT_ID":"2020-008V","EPOCH":"2026-03-04T11:16:14.536416","MEAN_MOTION":13.10373395,"ECCENTRICITY":0.00016483,"INCLINATION":87.8774,"RA_OF_ASC_NODE":57.1117,"ARG_OF_PERICENTER":88.8012,"MEAN_ANOMALY":271.3304,"EPHEMERIS_TYPE":0,"CLASSIFICATION_TYPE":"U","NORAD_CAT_ID":45150,"ELEMENT_SET_NO":999,"REV_AT_EPOCH":29476,"BSTAR":-0.001925588,"MEAN_MOTION_DOT":-6.59e-6,"MEAN_MOTION_DDOT":0},{"OBJECT_NAME":"ONEWEB-0045","OBJECT_ID":"2020-008W","EPOCH":"2026-03-04T11:37:39.150624","MEAN_MOTION":13.11413738,"ECCENTRICITY":0.00017476,"INCLINATION":87.8861,"RA_OF_ASC_NODE":41.8706,"ARG_OF_PERICENTER":86.3553,"MEAN_ANOMALY":273.7775,"EPHEMERIS_TYPE":0,"CLASSIFICATION_TYPE":"U","NORAD_CAT_ID":45151,"ELEMENT_SET_NO":999,"REV_AT_EPOCH":29668,"BSTAR":-0.00019434831,"MEAN_MOTION_DOT":-5.6e-7,"MEAN_MOTION_DDOT":0},{"OBJECT_NAME":"ONEWEB-0047","OBJECT_ID":"2020-008X","EPOCH":"2026-03-04T11:06:41.797728","MEAN_MOTION":13.10375218,"ECCENTRICITY":0.00018855,"INCLINATION":87.8764,"RA_OF_ASC_NODE":57.116,"ARG_OF_PERICENTER":92.4174,"MEAN_ANOMALY":267.7169,"EPHEMERIS_TYPE":0,"CLASSIFICATION_TYPE":"U","NORAD_CAT_ID":45152,"ELEMENT_SET_NO":999,"REV_AT_EPOCH":29448,"BSTAR":-0.0017966586,"MEAN_MOTION_DOT":-6.14e-6,"MEAN_MOTION_DDOT":0},{"OBJECT_NAME":"ONEWEB-0048","OBJECT_ID":"2020-008Y","EPOCH":"2026-03-04T10:59:30.452640","MEAN_MOTION":13.10369617,"ECCENTRICITY":0.00018754,"INCLINATION":87.8761,"RA_OF_ASC_NODE":57.1442,"ARG_OF_PERICENTER":90.8343,"MEAN_ANOMALY":269.2999,"EPHEMERIS_TYPE":0,"CLASSIFICATION_TYPE":"U","NORAD_CAT_ID":45153,"ELEMENT_SET_NO":999,"REV_AT_EPOCH":29409,"BSTAR":-0.00128135,"MEAN_MOTION_DOT":-4.35e-6,"MEAN_MOTION_DDOT":0},{"OBJECT_NAME":"ONEWEB-0049","OBJECT_ID":"2020-008Z","EPOCH":"2026-03-04T11:04:05.272032","MEAN_MOTION":13.10370525,"ECCENTRICITY":0.00018789,"INCLINATION":87.8759,"RA_OF_ASC_NODE":57.1316,"ARG_OF_PERICENTER":73.9079,"MEAN_ANOMALY":286.2255,"EPHEMERIS_TYPE":0,"CLASSIFICATION_TYPE":"U","NORAD_CAT_ID":45154,"ELEMENT_SET_NO":999,"REV_AT_EPOCH":29431,"BSTAR":-0.0016359276,"MEAN_MOTION_DOT":-5.58e-6,"MEAN_MOTION_DDOT":0},{"OBJECT_NAME":"ONEWEB-0051","OBJECT_ID":"2020-008AA","EPOCH":"2026-03-04T11:35:13.004160","MEAN_MOTION":13.11414576,"ECCENTRICITY":0.00018257,"INCLINATION":87.8856,"RA_OF_ASC_NODE":41.8841,"ARG_OF_PERICENTER":84.9024,"MEAN_ANOMALY":275.2312,"EPHEMERIS_TYPE":0,"CLASSIFICATION_TYPE":"U","NORAD_CAT_ID":45155,"ELEMENT_SET_NO":999,"REV_AT_EPOCH":29736,"BSTAR":9.3023734e-5,"MEAN_MOTION_DOT":4.6e-7,"MEAN_MOTION_DDOT":0},{"OBJECT_NAME":"ONEWEB-0052","OBJECT_ID":"2020-008AB","EPOCH":"2026-03-04T11:02:33.612864","MEAN_MOTION":13.09872593,"ECCENTRICITY":0.00017977,"INCLINATION":87.877,"RA_OF_ASC_NODE":57.1027,"ARG_OF_PERICENTER":71.9125,"MEAN_ANOMALY":288.2198,"EPHEMERIS_TYPE":0,"CLASSIFICATION_TYPE":"U","NORAD_CAT_ID":45156,"ELEMENT_SET_NO":999,"REV_AT_EPOCH":29422,"BSTAR":-0.0017082228,"MEAN_MOTION_DOT":-5.79e-6,"MEAN_MOTION_DDOT":0},{"OBJECT_NAME":"ONEWEB-0053","OBJECT_ID":"2020-008AC","EPOCH":"2026-03-04T12:20:49.204896","MEAN_MOTION":13.10370914,"ECCENTRICITY":0.0001474,"INCLINATION":87.8763,"RA_OF_ASC_NODE":57.1299,"ARG_OF_PERICENTER":76.4734,"MEAN_ANOMALY":283.6558,"EPHEMERIS_TYPE":0,"CLASSIFICATION_TYPE":"U","NORAD_CAT_ID":45157,"ELEMENT_SET_NO":999,"REV_AT_EPOCH":29420,"BSTAR":0.001427,"MEAN_MOTION_DOT":5.11e-6,"MEAN_MOTION_DDOT":0},{"OBJECT_NAME":"ONEWEB-0054","OBJECT_ID":"2020-008AD","EPOCH":"2026-03-04T11:21:01.924416","MEAN_MOTION":13.1037427,"ECCENTRICITY":0.00018828,"INCLINATION":87.8772,"RA_OF_ASC_NODE":57.1128,"ARG_OF_PERICENTER":85.358,"MEAN_ANOMALY":274.7762,"EPHEMERIS_TYPE":0,"CLASSIFICATION_TYPE":"U","NORAD_CAT_ID":45158,"ELEMENT_SET_NO":999,"REV_AT_EPOCH":29431,"BSTAR":-0.0017258325,"MEAN_MOTION_DOT":-5.9e-6,"MEAN_MOTION_DDOT":0},{"OBJECT_NAME":"ONEWEB-0056","OBJECT_ID":"2020-008AE","EPOCH":"2026-03-04T10:53:32.783424","MEAN_MOTION":13.10370086,"ECCENTRICITY":0.00019552,"INCLINATION":87.8767,"RA_OF_ASC_NODE":57.1162,"ARG_OF_PERICENTER":83.2877,"MEAN_ANOMALY":276.8473,"EPHEMERIS_TYPE":0,"CLASSIFICATION_TYPE":"U","NORAD_CAT_ID":45159,"ELEMENT_SET_NO":999,"REV_AT_EPOCH":29446,"BSTAR":-0.00079585959,"MEAN_MOTION_DOT":-2.65e-6,"MEAN_MOTION_DDOT":0},{"OBJECT_NAME":"ONEWEB-0057","OBJECT_ID":"2020-008AF","EPOCH":"2026-03-04T11:04:31.053792","MEAN_MOTION":13.10362808,"ECCENTRICITY":0.00016384,"INCLINATION":87.8766,"RA_OF_ASC_NODE":57.1244,"ARG_OF_PERICENTER":81.5135,"MEAN_ANOMALY":278.6178,"EPHEMERIS_TYPE":0,"CLASSIFICATION_TYPE":"U","NORAD_CAT_ID":45160,"ELEMENT_SET_NO":999,"REV_AT_EPOCH":29463,"BSTAR":-0.0048422773,"MEAN_MOTION_DOT":-1.677e-5,"MEAN_MOTION_DDOT":0}]
